[
    {
        "Altitude(m)": 607895.8352666013,
        "Argument of Periapsis(deg)": 0.0,
        "Eccentricity": 0.0,
        "Inclination(deg)": 60.0,
        "Latitude(deg)": 40.998388027536336,
        "Longitude(deg)": 30.088565756905457,
        "Mean Anomaly(deg)": -229.09090000000006,
        "RAAN(deg)": 340.00000000000006,
        "Satellite Name": "Test1 1504",
        "Satellite Number": 1504,
        "Semi-Major Axis(m)": 6980739.136638005,
        "Time(s)": 0
    },
    {
        "Altitude(m)": 607795.1483606456,
        "Argument of Periapsis(deg)": 0.00010418945913296404,
        "Eccentricity": 0.0,
        "Inclination(deg)": 60.0,
        "Latitude(deg)": 40.53071309098414,
        "Longitude(deg)": 30.58516125805073,
        "Mean Anomaly(deg)": -228.4707938545382,
        "RAAN(deg)": 339.99957995086027,
        "Satellite Name": "Test1 1504",
        "Satellite Number": 1504,
        "Semi-Major Axis(m)": 6980739.136638005,
        "Time(s)": 10
    }
]